GLOBALSTAR M023         
1 25621U 99004A   24142.39324699 -.00000027  00000+0  42932-3 0  9998
2 25621  52.0082 166.4228 0010112 342.2844 122.7188 12.62454264166240
GLOBALSTAR M040         
1 25622U 99004B   24142.37498341 -.00000026  00000+0  43664-3 0  9995
2 25622  51.9892 170.0544 0000681 250.1664 216.0086 12.61974853165789
GLOBALSTAR M036         
1 25623U 99004C   24142.92462333 -.00000045  00000+0  54929-3 0  9996
2 25623  51.9943 191.5761 0011038  20.1955  35.6064 11.86566008132535
GLOBALSTAR M038         
1 25624U 99004D   24142.33696317 -.00000057  00000+0  31101-3 0  9993
2 25624  51.9953 120.0270 0001997 324.2267 183.7010 12.32500156154057
GLOBALSTAR M022         
1 25649U 99012A   24142.65889084 -.00000088  00000+0 -11315-4 0  9990
2 25649  52.0042 275.2378 0003212 116.1777 347.2494 12.02482748129275
GLOBALSTAR M041         
1 25650U 99012B   24142.38954743 -.00000048  00000+0  48237-3 0  9994
2 25650  51.9988 145.4741 0002666 269.5302  90.5229 11.96660142131371
GLOBALSTAR M046         
1 25651U 99012C   24142.60544713  .00000020  00000+0  11939-2 0  9999
2 25651  52.0050 239.8114 0002670 182.4177 284.9678 12.09391684136283
GLOBALSTAR M037         
1 25652U 99012D   24142.75037736 -.00000069  00000+0  19404-3 0  9998
2 25652  52.0013 296.1008 0002278  60.5523  44.0719 12.62406175161837
